H1 CPF 01  gfz 2021 01 14 13  5142 terrasarx 
H2 0702601  6201 31698    2021 01 14 12 59 42 2021 01 19 00 00 42   120 1 1  0 0 0
H9
10 0 59232  82062.000000  0    -727197.651   -635623.215   6809827.389
10 0 59232  82182.000000  0   -1011850.582    239564.892   6798930.874
10 0 59232  82302.000000  0   -1263530.530   1115267.018   6668585.248
10 0 59232  82422.000000  0   -1477974.722   1975589.437   6421064.390
10 0 59232  82542.000000  0   -1651842.670   2804832.603   6060689.993
10 0 59232  82662.000000  0   -1782768.585   3587778.294   5593760.502
10 0 59232  82782.000000  0   -1869392.298   4309971.010   5028447.055
10 0 59232  82902.000000  0   -1911369.194   4957990.390   4374657.425
10 0 59232  83022.000000  0   -1909358.067   5519708.255   3643866.996
10 0 59232  83142.000000  0   -1864987.255   5984524.559   2848919.979
10 0 59232  83262.000000  0   -1780800.209   6343576.258   2003803.386
10 0 59232  83382.000000  0   -1660180.413   6589915.333   1123397.843
10 0 59232  83502.000000  0   -1507257.052   6718649.939    223209.807
10 0 59232  83622.000000  0   -1326795.058   6727045.634   -680908.716
10 0 59232  83742.000000  0   -1124071.582   6614584.849  -1573049.340
10 0 59232  83862.000000  0    -904741.207   6382977.630  -2437538.507
10 0 59232  83982.000000  0    -674695.726   6036126.035  -3259218.767
10 0 59232  84102.000000  0    -439921.405   5580047.655  -4023716.343
10 0 59232  84222.000000  0    -206356.925   5022759.827  -4717692.365
10 0 59232  84342.000000  0      20244.507   4374126.486  -5329071.715
10 0 59232  84462.000000  0     234446.185   3645672.918  -5847246.409
10 0 59232  84582.000000  0     431248.756   2850371.466  -6263250.440
10 0 59232  84702.000000  0     606197.921   2002404.315  -6569903.278
10 0 59232  84822.000000  0     755478.075   1116909.489  -6761922.439
10 0 59232  84942.000000  0     875990.026    209712.642  -6836005.406
10 0 59232  85062.000000  0     965411.664   -702951.188  -6790880.306
10 0 59232  85182.000000  0    1022240.675  -1604722.053  -6627323.977
10 0 59232  85302.000000  0    1045819.107  -2479399.783  -6348148.935
10 0 59232  85422.000000  0    1036340.223  -3311227.772  -5958162.224
10 0 59232  85542.000000  0     994835.926  -4085174.972  -5464092.506
10 0 59232  85662.000000  0     923145.699  -4787207.556  -4874483.310
10 0 59232  85782.000000  0     823868.057  -5404546.386  -4199556.989
10 0 59232  85902.000000  0     700293.917  -5925907.573  -3451048.139
10 0 59232  86022.000000  0     556323.506  -6341718.940  -2642007.330
10 0 59232  86142.000000  0     396368.757  -6644308.009  -1786578.950
10 0 59232  86262.000000  0     225242.791  -6828056.905   -899754.672
10 0 59232  86382.000000  0      48038.831  -6889517.662      2892.632
99
